[{"OBJECT_NAME":"STARLINK-31891","OBJECT_ID":"2024-097V","EPOCH":"2026-03-09T13:24:38.093472","MEAN_MOTION":15.27609844,"ECCENTRICITY":9.02e-5,"INCLINATION":43.0032,"RA_OF_ASC_NODE":275.3703,"ARG_OF_PERICENTER":281.3494,"MEAN_ANOMALY":78.7257,"EPHEMERIS_TYPE":0,"CLASSIFICATION_TYPE":"U","NORAD_CAT_ID":59854,"ELEMENT_SET_NO":999,"REV_AT_EPOCH":10189,"BSTAR":-0.00023573713,"MEAN_MOTION_DOT":-6.749e-5,"MEAN_MOTION_DDOT":0},{"OBJECT_NAME":"GEOSCAN 4 (RS92S4)","OBJECT_ID":"2025-155S","EPOCH":"2026-03-09T21:50:07.724832","MEAN_MOTION":15.30369837,"ECCENTRICITY":0.00070968,"INCLINATION":97.4465,"RA_OF_ASC_NODE":37.7626,"ARG_OF_PERICENTER":154.7045,"MEAN_ANOMALY":205.4544,"EPHEMERIS_TYPE":0,"CLASSIFICATION_TYPE":"U","NORAD_CAT_ID":64892,"ELEMENT_SET_NO":999,"REV_AT_EPOCH":6562,"BSTAR":0.00068609503,"MEAN_MOTION_DOT":0.00020121,"MEAN_MOTION_DDOT":0}]
